{
 "type": "FeatureCollection",
 "features": [
  {
   "type": "Feature",
   "properties": {
    "slug": "moncion-presa",
    "name": "De Monción a la Presa",
    "kind": "ecologica",
    "description": "Caminata desde el Parque Central de Monción hasta la Presa de Monción, sobre el río Mao. El trazado sigue calles y caminos que existen en OpenStreetMap; conviene validarlo con el municipio antes de recomendarlo.",
    "distance_m": 3968
   },
   "geometry": {
    "coordinates": [
     [
      -71.150208,
      19.410864
     ],
     [
      -71.150093,
      19.410842
     ],
     [
      -71.150117,
      19.410658
     ],
     [
      -71.149703,
      19.410597
     ],
     [
      -71.149661,
      19.410591
     ],
     [
      -71.149666,
      19.410553
     ],
     [
      -71.148633,
      19.410401
     ],
     [
      -71.148594,
      19.410396
     ],
     [
      -71.148546,
      19.410386
     ],
     [
      -71.148357,
      19.410347
     ],
     [
      -71.148233,
      19.41034
     ],
     [
      -71.148016,
      19.410369
     ],
     [
      -71.147702,
      19.410431
     ],
     [
      -71.147286,
      19.410512
     ],
     [
      -71.146955,
      19.409349
     ],
     [
      -71.146782,
      19.409336
     ],
     [
      -71.146472,
      19.409267
     ],
     [
      -71.145925,
      19.409145
     ],
     [
      -71.145225,
      19.408989
     ],
     [
      -71.143598,
      19.40881
     ],
     [
      -71.143308,
      19.408688
     ],
     [
      -71.142604,
      19.407963
     ],
     [
      -71.142156,
      19.407488
     ],
     [
      -71.141798,
      19.407149
     ],
     [
      -71.14158,
      19.407065
     ],
     [
      -71.141094,
      19.407078
     ],
     [
      -71.139748,
      19.407151
     ],
     [
      -71.137705,
      19.407086
     ],
     [
      -71.13646,
      19.407086
     ],
     [
      -71.136301,
      19.407109
     ],
     [
      -71.135543,
      19.407427
     ],
     [
      -71.135367,
      19.40748
     ],
     [
      -71.134393,
      19.407357
     ],
     [
      -71.134263,
      19.407311
     ],
     [
      -71.133271,
      19.406959
     ],
     [
      -71.132836,
      19.406779
     ],
     [
      -71.132575,
      19.406555
     ],
     [
      -71.132418,
      19.406172
     ],
     [
      -71.132399,
      19.405873
     ],
     [
      -71.132335,
      19.405619
     ],
     [
      -71.132169,
      19.405402
     ],
     [
      -71.131377,
      19.405052
     ],
     [
      -71.130966,
      19.405015
     ],
     [
      -71.130423,
      19.405077
     ],
     [
      -71.129683,
      19.404947
     ],
     [
      -71.128974,
      19.404849
     ],
     [
      -71.128418,
      19.404562
     ],
     [
      -71.128159,
      19.404275
     ],
     [
      -71.127536,
      19.403594
     ],
     [
      -71.127262,
      19.403513
     ],
     [
      -71.126873,
      19.403462
     ],
     [
      -71.126337,
      19.403407
     ],
     [
      -71.126081,
      19.403486
     ],
     [
      -71.125885,
      19.403656
     ],
     [
      -71.125638,
      19.403908
     ],
     [
      -71.125494,
      19.404057
     ],
     [
      -71.125344,
      19.404285
     ],
     [
      -71.125036,
      19.404526
     ],
     [
      -71.124812,
      19.404652
     ],
     [
      -71.124577,
      19.404758
     ],
     [
      -71.124411,
      19.404915
     ],
     [
      -71.124362,
      19.405049
     ],
     [
      -71.124318,
      19.405409
     ],
     [
      -71.124181,
      19.405731
     ],
     [
      -71.124063,
      19.405861
     ],
     [
      -71.123804,
      19.405921
     ],
     [
      -71.123281,
      19.406045
     ],
     [
      -71.123215,
      19.406046
     ],
     [
      -71.122985,
      19.405928
     ],
     [
      -71.122328,
      19.405595
     ],
     [
      -71.122008,
      19.405447
     ],
     [
      -71.121901,
      19.405454
     ],
     [
      -71.121824,
      19.405507
     ],
     [
      -71.121751,
      19.405567
     ],
     [
      -71.121599,
      19.405731
     ],
     [
      -71.121535,
      19.405792
     ],
     [
      -71.120701,
      19.406613
     ],
     [
      -71.120595,
      19.406723
     ],
     [
      -71.120416,
      19.40688
     ],
     [
      -71.120351,
      19.406905
     ],
     [
      -71.120277,
      19.40691
     ],
     [
      -71.12018,
      19.406873
     ],
     [
      -71.120055,
      19.406808
     ],
     [
      -71.119069,
      19.405725
     ]
    ],
    "type": "LineString"
   }
  },
  {
   "type": "Feature",
   "properties": {
    "slug": "sabaneta-mata-del-jobo",
    "name": "Sabaneta al Parador de Mata del Jobo",
    "kind": "cultural",
    "description": "Recorrido desde el Parque Central de San Ignacio de Sabaneta hasta el Parador Fotográfico de Mata del Jobo. El trazado sigue calles y caminos que existen en OpenStreetMap; conviene validarlo con el municipio antes de recomendarlo.",
    "distance_m": 4667
   },
   "geometry": {
    "coordinates": [
     [
      -71.341849,
      19.476013
     ],
     [
      -71.341481,
      19.476065
     ],
     [
      -71.341299,
      19.475407
     ],
     [
      -71.34106,
      19.475475
     ],
     [
      -71.340899,
      19.47552
     ],
     [
      -71.339978,
      19.475804
     ],
     [
      -71.339913,
      19.475824
     ],
     [
      -71.339418,
      19.475987
     ],
     [
      -71.339315,
      19.476021
     ],
     [
      -71.339249,
      19.476042
     ],
     [
      -71.338662,
      19.476222
     ],
     [
      -71.338482,
      19.476276
     ],
     [
      -71.338396,
      19.476281
     ],
     [
      -71.338312,
      19.47624
     ],
     [
      -71.338156,
      19.476103
     ],
     [
      -71.337795,
      19.475775
     ],
     [
      -71.337579,
      19.475483
     ],
     [
      -71.337411,
      19.475265
     ],
     [
      -71.337221,
      19.475056
     ],
     [
      -71.336766,
      19.47473
     ],
     [
      -71.336607,
      19.474693
     ],
     [
      -71.336368,
      19.474628
     ],
     [
      -71.335714,
      19.474344
     ],
     [
      -71.335498,
      19.474311
     ],
     [
      -71.335267,
      19.474293
     ],
     [
      -71.335004,
      19.474325
     ],
     [
      -71.334446,
      19.474505
     ],
     [
      -71.334315,
      19.474529
     ],
     [
      -71.334193,
      19.474421
     ],
     [
      -71.333987,
      19.474022
     ],
     [
      -71.333792,
      19.473678
     ],
     [
      -71.333533,
      19.473418
     ],
     [
      -71.333069,
      19.473206
     ],
     [
      -71.33281,
      19.473119
     ],
     [
      -71.332688,
      19.473051
     ],
     [
      -71.332591,
      19.472938
     ],
     [
      -71.332469,
      19.472784
     ],
     [
      -71.332334,
      19.472613
     ],
     [
      -71.332067,
      19.472378
     ],
     [
      -71.331864,
      19.472201
     ],
     [
      -71.33173,
      19.472084
     ],
     [
      -71.331561,
      19.471937
     ],
     [
      -71.330891,
      19.471397
     ],
     [
      -71.329946,
      19.470611
     ],
     [
      -71.328875,
      19.469652
     ],
     [
      -71.328641,
      19.46947
     ],
     [
      -71.328288,
      19.469035
     ],
     [
      -71.327985,
      19.468677
     ],
     [
      -71.327823,
      19.468463
     ],
     [
      -71.327572,
      19.468188
     ],
     [
      -71.327306,
      19.467805
     ],
     [
      -71.326781,
      19.467383
     ],
     [
      -71.32626,
      19.467063
     ],
     [
      -71.326207,
      19.467034
     ],
     [
      -71.326052,
      19.466938
     ],
     [
      -71.32566,
      19.466882
     ],
     [
      -71.325412,
      19.466873
     ],
     [
      -71.325248,
      19.466913
     ],
     [
      -71.325074,
      19.466955
     ],
     [
      -71.324694,
      19.467137
     ],
     [
      -71.324472,
      19.46727
     ],
     [
      -71.324222,
      19.467399
     ],
     [
      -71.323808,
      19.467558
     ],
     [
      -71.323419,
      19.467702
     ],
     [
      -71.323142,
      19.467778
     ],
     [
      -71.322757,
      19.46786
     ],
     [
      -71.322648,
      19.467883
     ],
     [
      -71.322481,
      19.467917
     ],
     [
      -71.32197,
      19.467958
     ],
     [
      -71.321959,
      19.467959
     ],
     [
      -71.321251,
      19.467959
     ],
     [
      -71.321012,
      19.467927
     ],
     [
      -71.320834,
      19.467878
     ],
     [
      -71.320468,
      19.467778
     ],
     [
      -71.320254,
      19.467705
     ],
     [
      -71.320093,
      19.467629
     ],
     [
      -71.319949,
      19.46754
     ],
     [
      -71.31963,
      19.467318
     ],
     [
      -71.319567,
      19.467268
     ],
     [
      -71.319454,
      19.467181
     ],
     [
      -71.319216,
      19.467008
     ],
     [
      -71.319038,
      19.466867
     ],
     [
      -71.318905,
      19.466734
     ],
     [
      -71.318863,
      19.466681
     ],
     [
      -71.318694,
      19.466485
     ],
     [
      -71.318535,
      19.466273
     ],
     [
      -71.318463,
      19.466163
     ],
     [
      -71.318399,
      19.466003
     ],
     [
      -71.318377,
      19.465967
     ],
     [
      -71.318324,
      19.465859
     ],
     [
      -71.318277,
      19.465778
     ],
     [
      -71.317697,
      19.465014
     ],
     [
      -71.3175,
      19.464786
     ],
     [
      -71.317439,
      19.464702
     ],
     [
      -71.316906,
      19.46416
     ],
     [
      -71.31685,
      19.46409
     ],
     [
      -71.316781,
      19.463993
     ],
     [
      -71.316714,
      19.463885
     ],
     [
      -71.316492,
      19.463542
     ],
     [
      -71.316306,
      19.463252
     ],
     [
      -71.316278,
      19.463184
     ],
     [
      -71.316239,
      19.463016
     ],
     [
      -71.316136,
      19.462587
     ],
     [
      -71.316063,
      19.462328
     ],
     [
      -71.315952,
      19.461987
     ],
     [
      -71.315681,
      19.461116
     ],
     [
      -71.315453,
      19.460799
     ],
     [
      -71.31517,
      19.460442
     ],
     [
      -71.314955,
      19.460066
     ],
     [
      -71.313569,
      19.457953
     ],
     [
      -71.31324,
      19.45746
     ],
     [
      -71.312936,
      19.456963
     ],
     [
      -71.312655,
      19.456407
     ],
     [
      -71.31222,
      19.455095
     ],
     [
      -71.312099,
      19.454903
     ],
     [
      -71.311901,
      19.454639
     ],
     [
      -71.311669,
      19.454443
     ],
     [
      -71.311418,
      19.45421
     ],
     [
      -71.311132,
      19.453878
     ],
     [
      -71.311028,
      19.453754
     ]
    ],
    "type": "LineString"
   }
  },
  {
   "type": "Feature",
   "properties": {
    "slug": "sabaneta-caimito",
    "name": "Sabaneta al Parador de Caimito",
    "kind": "aventura",
    "description": "Ruta larga desde el Parque Central de Sabaneta hasta el Parador Fotográfico de Caimito. El trazado sigue calles y caminos que existen en OpenStreetMap; conviene validarlo con el municipio antes de recomendarlo.",
    "distance_m": 7418
   },
   "geometry": {
    "coordinates": [
     [
      -71.341849,
      19.476013
     ],
     [
      -71.341481,
      19.476065
     ],
     [
      -71.341299,
      19.475407
     ],
     [
      -71.34106,
      19.475475
     ],
     [
      -71.340899,
      19.47552
     ],
     [
      -71.339978,
      19.475804
     ],
     [
      -71.339913,
      19.475824
     ],
     [
      -71.339418,
      19.475987
     ],
     [
      -71.339315,
      19.476021
     ],
     [
      -71.339249,
      19.476042
     ],
     [
      -71.338662,
      19.476222
     ],
     [
      -71.338482,
      19.476276
     ],
     [
      -71.338396,
      19.476281
     ],
     [
      -71.338312,
      19.47624
     ],
     [
      -71.338156,
      19.476103
     ],
     [
      -71.337795,
      19.475775
     ],
     [
      -71.337579,
      19.475483
     ],
     [
      -71.337411,
      19.475265
     ],
     [
      -71.337221,
      19.475056
     ],
     [
      -71.336766,
      19.47473
     ],
     [
      -71.336607,
      19.474693
     ],
     [
      -71.336368,
      19.474628
     ],
     [
      -71.335714,
      19.474344
     ],
     [
      -71.335498,
      19.474311
     ],
     [
      -71.335267,
      19.474293
     ],
     [
      -71.335004,
      19.474325
     ],
     [
      -71.334446,
      19.474505
     ],
     [
      -71.334315,
      19.474529
     ],
     [
      -71.334106,
      19.474711
     ],
     [
      -71.333835,
      19.474711
     ],
     [
      -71.331182,
      19.475692
     ],
     [
      -71.330255,
      19.475942
     ],
     [
      -71.329924,
      19.476111
     ],
     [
      -71.329921,
      19.476771
     ],
     [
      -71.329946,
      19.477278
     ],
     [
      -71.329816,
      19.477345
     ],
     [
      -71.329468,
      19.477524
     ],
     [
      -71.329229,
      19.477739
     ],
     [
      -71.328969,
      19.477929
     ],
     [
      -71.328765,
      19.47802
     ],
     [
      -71.328094,
      19.47807
     ],
     [
      -71.327636,
      19.478151
     ],
     [
      -71.326907,
      19.478257
     ],
     [
      -71.325603,
      19.478453
     ],
     [
      -71.325678,
      19.478892
     ],
     [
      -71.325749,
      19.479483
     ],
     [
      -71.325061,
      19.479599
     ],
     [
      -71.323354,
      19.479832
     ],
     [
      -71.322772,
      19.479959
     ],
     [
      -71.322219,
      19.480041
     ],
     [
      -71.322287,
      19.480549
     ],
     [
      -71.322294,
      19.480735
     ],
     [
      -71.322023,
      19.480766
     ],
     [
      -71.321365,
      19.480527
     ],
     [
      -71.321411,
      19.480415
     ],
     [
      -71.321242,
      19.480363
     ],
     [
      -71.321192,
      19.480348
     ],
     [
      -71.320832,
      19.480248
     ],
     [
      -71.320764,
      19.480227
     ],
     [
      -71.320328,
      19.480144
     ],
     [
      -71.320077,
      19.48011
     ],
     [
      -71.319767,
      19.480088
     ],
     [
      -71.319397,
      19.480071
     ],
     [
      -71.31885,
      19.480059
     ],
     [
      -71.318306,
      19.480054
     ],
     [
      -71.317693,
      19.480049
     ],
     [
      -71.317379,
      19.48005
     ],
     [
      -71.316918,
      19.480055
     ],
     [
      -71.315925,
      19.480112
     ],
     [
      -71.315456,
      19.480155
     ],
     [
      -71.315214,
      19.480175
     ],
     [
      -71.314752,
      19.480214
     ],
     [
      -71.314324,
      19.480238
     ],
     [
      -71.313846,
      19.480297
     ],
     [
      -71.31362,
      19.480325
     ],
     [
      -71.313382,
      19.480382
     ],
     [
      -71.31309,
      19.480465
     ],
     [
      -71.312433,
      19.480714
     ],
     [
      -71.312116,
      19.480848
     ],
     [
      -71.311852,
      19.480962
     ],
     [
      -71.311581,
      19.481078
     ],
     [
      -71.310821,
      19.481387
     ],
     [
      -71.310433,
      19.481541
     ],
     [
      -71.310144,
      19.48166
     ],
     [
      -71.309838,
      19.481795
     ],
     [
      -71.309539,
      19.481919
     ],
     [
      -71.30903,
      19.482136
     ],
     [
      -71.308639,
      19.482303
     ],
     [
      -71.307857,
      19.482625
     ],
     [
      -71.307347,
      19.482821
     ],
     [
      -71.307098,
      19.4829
     ],
     [
      -71.306795,
      19.482965
     ],
     [
      -71.306626,
      19.48299
     ],
     [
      -71.306309,
      19.483009
     ],
     [
      -71.306005,
      19.483017
     ],
     [
      -71.305789,
      19.483006
     ],
     [
      -71.305308,
      19.482951
     ],
     [
      -71.304991,
      19.482903
     ],
     [
      -71.304617,
      19.48285
     ],
     [
      -71.304338,
      19.482831
     ],
     [
      -71.304141,
      19.482819
     ],
     [
      -71.303916,
      19.482817
     ],
     [
      -71.303584,
      19.482837
     ],
     [
      -71.303194,
      19.482901
     ],
     [
      -71.302664,
      19.48301
     ],
     [
      -71.30211,
      19.483118
     ],
     [
      -71.301539,
      19.48324
     ],
     [
      -71.300946,
      19.483358
     ],
     [
      -71.300794,
      19.483389
     ],
     [
      -71.300368,
      19.483474
     ],
     [
      -71.300228,
      19.483502
     ],
     [
      -71.299593,
      19.483627
     ],
     [
      -71.29833,
      19.483883
     ],
     [
      -71.297622,
      19.484028
     ],
     [
      -71.297301,
      19.484094
     ],
     [
      -71.296852,
      19.484238
     ],
     [
      -71.296521,
      19.484367
     ],
     [
      -71.296261,
      19.484497
     ],
     [
      -71.295889,
      19.484751
     ],
     [
      -71.295361,
      19.485179
     ],
     [
      -71.294801,
      19.485698
     ],
     [
      -71.294273,
      19.486167
     ],
     [
      -71.293859,
      19.486548
     ],
     [
      -71.293236,
      19.487118
     ],
     [
      -71.292696,
      19.487619
     ],
     [
      -71.29215,
      19.488123
     ],
     [
      -71.291732,
      19.488501
     ],
     [
      -71.2913,
      19.488935
     ],
     [
      -71.290163,
      19.490067
     ],
     [
      -71.289834,
      19.490402
     ],
     [
      -71.289303,
      19.490936
     ],
     [
      -71.288253,
      19.491989
     ],
     [
      -71.287954,
      19.492304
     ],
     [
      -71.287491,
      19.492753
     ],
     [
      -71.287014,
      19.493214
     ],
     [
      -71.286786,
      19.493408
     ],
     [
      -71.286652,
      19.493518
     ],
     [
      -71.28648,
      19.493629
     ],
     [
      -71.286225,
      19.493767
     ],
     [
      -71.285968,
      19.493901
     ],
     [
      -71.285513,
      19.494126
     ],
     [
      -71.284857,
      19.494454
     ],
     [
      -71.284138,
      19.494812
     ],
     [
      -71.283844,
      19.494954
     ],
     [
      -71.2835,
      19.495119
     ],
     [
      -71.283118,
      19.495313
     ],
     [
      -71.282522,
      19.495614
     ],
     [
      -71.282264,
      19.495729
     ]
    ],
    "type": "LineString"
   }
  }
 ]
}